GONETS-M 19             
1 46488U 20068C   26162.59422738  .00000088  00000+0  56034-3 0  9999
2 46488  82.4973 350.5526 0014408  60.9255 299.3266 12.42892092258556
DEKART                  
1 46493U 20068H   26162.60895775  .00010925  00000+0  30182-3 0  9999
2 46493  97.8741 171.4796 0007241 311.3427  48.7192 15.37224550314917
NORBI                   
1 46494U 20068J   26162.59911773  .00019771  00000+0  37686-3 0  9999
2 46494  97.8628 178.0721 0004468 273.7790  86.2948 15.48216799315347
SALSAT                  
1 46495U 20068K   26162.58556221  .00006923  00000+0  24314-3 0  9991
2 46495  97.8849 165.3093 0008525 331.4069  28.6701 15.29719030314502
ICEYE-X6                
1 46497U 20068M   26162.60466595  .00003214  00000+0  23433-3 0  9991
2 46497  98.0960 156.0091 0008477 106.2744 253.9414 15.04487876312392
NETSAT-4                
1 46504U 20068U   26162.55045684  .00016418  00000+0  36585-3 0  9998
2 46504  97.8603 170.3387 0004567   2.6177 357.5092 15.43678218314901
NETSAT-3                
1 46505U 20068V   26162.55238750  .00017585  00000+0  40759-3 0  9991
2 46505  97.8652 168.5644 0005016  21.9125 338.2335 15.42483769314818
NETSAT-1                
1 46506U 20068W   26162.52770533  .00011763  00000+0  35417-3 0  9996
2 46506  97.8744 162.9354 0005692  48.6631 311.5100 15.34510423314436
NETSAT-2                
1 46507U 20068X   26162.27452251  .00017621  00000+0  36601-3 0  9998
2 46507  97.8620 169.9134 0004198  43.2285 316.9291 15.45743313314820
TIANQI-6                
1 46810U 20076D   26162.17631694  .00003197  00000+0  21002-3 0  9995
2 46810  34.9988  85.3527 0009292 119.3045 240.8594 15.07142291307674
KSM1-C                  
1 46906U 20081B   26162.27381088  .00008977  00000+0  33778-3 0  9991
2 46906  36.8944  95.4459 0002148 217.3064 142.7536 15.26640832308269
KSM1-D                  
1 46907U 20081C   26162.52963786  .00006489  00000+0  26043-3 0  9994
2 46907  36.8946 102.7675 0004629 230.0652 129.9690 15.24637994308233
KSM1-A                  
1 46912U 20081H   26162.53574432  .00006694  00000+0  25884-3 0  9997
2 46912  36.8954  96.1812 0004684 272.3867  87.6346 15.25866645308310
R2                      
1 46913U 20081J   26162.09692579  .00007249  00000+0  28415-3 0  9992
2 46913  36.8974  98.8318 0008821 239.1318 120.8563 15.25346310311050
KSM1-B                  
1 46914U 20081K   26162.27031692  .00007881  00000+0  31730-3 0  9992
2 46914  36.9004 104.9538 0006794 239.2757 120.7322 15.24427698311289
GONETS-M 20             
1 47227U 20091A   26162.61275443  .00000053  00000+0  31100-3 0  9998
2 47227  82.5039 305.9020 0020952 190.0098 170.0567 12.42893593250385
GONETS-M 21             
1 47228U 20091B   26162.66708684  .00000055  00000+0  32525-3 0  9996
2 47228  82.4963 304.5786 0014503 203.0769 156.9661 12.42886710250381
GONETS-M 22             
1 47229U 20091C   26162.64020862  .00000018  00000+0  57490-4 0  9998
2 47229  82.5021 305.4913 0021879 185.3569 174.7280 12.42892611250331
CUBEL                   
1 47448U 21006AM  26162.12338337  .00007878  00000+0  19294-3 0  9990
2 47448  97.2347 212.7647 0006656 181.7812 178.3413 15.41004490298825
ARKTIKA-M 1             
1 47719U 21016A   26160.51571443 -.00000149  00000+0  00000+0 0  9996
2 47719  63.2417  58.7595 7285674 269.8905  14.6803  2.00625436 38630
STARLINK-2342           
1 47883U 21021Z   26162.66668981  .00043061  00000+0  23474-3 0  9999
2 47883  53.1541 175.7230 0001643  73.2693 246.8187 15.79509330  5957
GRUS-1B                 
1 47934U 21022C   26162.63618677  .00001578  00000+0  13474-3 0  9997
2 47934  97.5416  46.0169 0016143 348.7937  11.2925 14.98987579285061
UNISAT-7                
1 47945U 21022P   26162.31298044  .00011619  00000+0  28971-3 0  9991
2 47945  97.3902  67.1766 0011209  95.5269 264.7256 15.40307881288954
GLOBAL-9                
1 47971U 21023G   26162.56925369  .00019064  00000+0  38317-3 0  9992
2 47971  44.9819 282.0986 0005073 289.7250  70.3093 15.46391167294075
AII-BRAVO               
1 48270U 21034C   26162.09792226  .00004153  00000+0  30945-3 0  9991
2 48270  97.5627 217.1459 0004651 287.1003  72.9713 15.03432479278706
TYVAK-182A              
1 48271U 21034D   26162.61671880  .00004212  00000+0  29218-3 0  9999
2 48271  97.5734 221.6308 0005599   8.6822 351.4501 15.06119666278990
CSS (TIANHE)            
1 48274U 21035A   26162.53781054  .00016554  00000+0  19807-3 0  9994
2 48274  41.4693 356.3769 0008209  31.5834 328.5496 15.60566891292283
TYVAK-0130              
1 48606U 21041BF  26162.02590587  .00006461  00000+0  24947-3 0  9990
2 48606  52.9974  54.6973 0010736 143.6361 216.5368 15.27487443279449
