OBJECT_NAME,OBJECT_ID,EPOCH,MEAN_MOTION,ECCENTRICITY,INCLINATION,RA_OF_ASC_NODE,ARG_OF_PERICENTER,MEAN_ANOMALY,EPHEMERIS_TYPE,CLASSIFICATION_TYPE,NORAD_CAT_ID,ELEMENT_SET_NO,REV_AT_EPOCH,BSTAR,MEAN_MOTION_DOT,MEAN_MOTION_DDOT
GONETS-M 19,2020-068C,2026-06-11T14:15:41.245632,12.42892092,.00144087,82.4973,350.5526,60.9255,299.3266,0,U,46488,999,25855,.56034152E-3,.88E-6,0
DEKART,2020-068H,2026-06-11T14:36:53.949600,15.37224550,.00072419,97.8741,171.4796,311.3427,48.7192,0,U,46493,999,31491,.30181995E-3,.10925E-3,0
NORBI,2020-068J,2026-06-11T14:22:43.771872,15.48216799,.00044682,97.8628,178.0721,273.7790,86.2948,0,U,46494,999,31534,.37686349E-3,.19771E-3,0
SALSAT,2020-068K,2026-06-11T14:03:12.574944,15.29719030,.00085257,97.8849,165.3093,331.4069,28.6701,0,U,46495,999,31450,.24314384E-3,.6923E-4,0
ICEYE-X6,2020-068M,2026-06-11T14:30:43.138080,15.04487876,.00084771,98.0960,156.0091,106.2744,253.9414,0,U,46497,999,31239,.23432848E-3,.3214E-4,0
NETSAT-4,2020-068U,2026-06-11T13:12:39.470976,15.43678218,.0004567,97.8603,170.3387,2.6177,357.5092,0,U,46504,999,31490,.36585299E-3,.16418E-3,0
NETSAT-3,2020-068V,2026-06-11T13:15:26.280000,15.42483769,.00050163,97.8652,168.5644,21.9125,338.2335,0,U,46505,999,31481,.40758571E-3,.17585E-3,0
NETSAT-1,2020-068W,2026-06-11T12:39:53.740512,15.34510423,.00056923,97.8744,162.9354,48.6631,311.5100,0,U,46506,999,31443,.35416851E-3,.11763E-3,0
NETSAT-2,2020-068X,2026-06-11T06:35:18.744864,15.45743313,.00041983,97.8620,169.9134,43.2285,316.9291,0,U,46507,999,31482,.36601021E-3,.17621E-3,0
TIANQI-6,2020-076D,2026-06-11T04:13:53.783616,15.07142291,.00092927,34.9988,85.3527,119.3045,240.8594,0,U,46810,999,30767,.21002025E-3,.3197E-4,0
KSM1-C,2020-081B,2026-06-11T06:34:17.260032,15.26640832,.00021484,36.8944,95.4459,217.3064,142.7536,0,U,46906,999,30826,.33777534E-3,.8977E-4,0
KSM1-D,2020-081C,2026-06-11T12:42:40.711104,15.24637994,.00046294,36.8946,102.7675,230.0652,129.9690,0,U,46907,999,30823,.26042982E-3,.6489E-4,0
KSM1-A,2020-081H,2026-06-11T12:51:28.309248,15.25866645,.0004684,36.8954,96.1812,272.3867,87.6346,0,U,46912,999,30831,.25884181E-3,.6694E-4,0
R2,2020-081J,2026-06-11T02:19:34.388256,15.25346310,.00088211,36.8974,98.8318,239.1318,120.8563,0,U,46913,999,31105,.28415469E-3,.7249E-4,0
KSM1-B,2020-081K,2026-06-11T06:29:15.381888,15.24427698,.00067948,36.9004,104.9538,239.2757,120.7322,0,U,46914,999,31128,.31729545E-3,.7881E-4,0
GONETS-M 20,2020-091A,2026-06-11T14:42:21.982752,12.42893593,.00209525,82.5039,305.9020,190.0098,170.0567,0,U,47227,999,25038,.31099672E-3,.53E-6,0
GONETS-M 21,2020-091B,2026-06-11T16:00:36.302976,12.42886710,.00145034,82.4963,304.5786,203.0769,156.9661,0,U,47228,999,25038,.32525126E-3,.55E-6,0
GONETS-M 22,2020-091C,2026-06-11T15:21:54.024768,12.42892611,.00218791,82.5021,305.4913,185.3569,174.7280,0,U,47229,999,25033,.57490305E-4,.18E-6,0
CUBEL,2021-006AM,2026-06-11T02:57:40.323168,15.41004490,.00066567,97.2347,212.7647,181.7812,178.3413,0,U,47448,999,29882,.19293715E-3,.7878E-4,0
ARKTIKA-M 1,2021-016A,2026-06-09T12:22:37.726752,2.00625436,.7285674,63.2417,58.7595,269.8905,14.6803,0,U,47719,999,3863,0,-.149E-5,0
STARLINK-2342,2021-021Z,2026-06-11T16:00:01.999584,15.79509330,.00016439,53.1541,175.7230,73.2693,246.8187,0,U,47883,999,595,.23474304E-3,.43061E-3,0
GRUS-1B,2021-022C,2026-06-11T15:16:06.536928,14.98987579,.0016143,97.5416,46.0169,348.7937,11.2925,0,U,47934,999,28506,.13473871E-3,.1578E-4,0
UNISAT-7,2021-022P,2026-06-11T07:30:41.510016,15.40307881,.00112094,97.3902,67.1766,95.5269,264.7256,0,U,47945,999,28895,.28970836E-3,.11619E-3,0
GLOBAL-9,2021-023G,2026-06-11T13:39:43.518816,15.46391167,.00050736,44.9819,282.0986,289.7250,70.3093,0,U,47971,999,29407,.38316543E-3,.19064E-3,0
AII-BRAVO,2021-034C,2026-06-11T02:21:00.483264,15.03432479,.00046517,97.5627,217.1459,287.1003,72.9713,0,U,48270,999,27870,.30944982E-3,.4153E-4,0
TYVAK-182A,2021-034D,2026-06-11T14:48:04.504320,15.06119666,.00055996,97.5734,221.6308,8.6822,351.4501,0,U,48271,999,27899,.29218375E-3,.4212E-4,0
CSS (TIANHE),2021-035A,2026-06-11T12:54:26.830656,15.60566891,.0008209,41.4693,356.3769,31.5834,328.5496,0,U,48274,999,29228,.19806993E-3,.16554E-3,0
TYVAK-0130,2021-041BF,2026-06-11T00:37:18.267168,15.27487443,.0010736,52.9974,54.6973,143.6361,216.5368,0,U,48606,999,27944,.2494697E-3,.6461E-4,0
